IRIDIUM 144             
1 43249U 18030A   23250.35447602  .00000379  00000+0  12824-3 0  9995
2 43249  86.4029 354.1300 0002110  87.6075 272.5362 14.34221922284827
IRIDIUM 149             
1 43250U 18030B   23250.36082787  .00000101  00000+0  28999-4 0  9991
2 43250  86.4029 354.1054 0002034  88.1549 271.9880 14.34216035284841
IRIDIUM 140             
1 43252U 18030D   23250.32911586  .00000377  00000+0  12756-3 0  9995
2 43252  86.4029 354.1642 0002276  86.3213 273.8243 14.34222687284879
IRIDIUM 145             
1 43253U 18030E   23250.31642485  .00000390  00000+0  13222-3 0  9998
2 43253  86.4011 354.1447 0002014  83.8427 276.2998 14.34215150284807
IRIDIUM 148             
1 43255U 18030G   23250.33546484  .00000385  00000+0  13024-3 0  9998
2 43255  86.4030 354.1798 0001848  94.1367 266.0040 14.34217883284856
IRIDIUM 142             
1 43256U 18030H   23250.37351269  .00000224  00000+0  73089-4 0  9998
2 43256  86.4026 354.0893 0002054  96.1688 263.9742 14.34216588284828
